[{"OBJECT_NAME":"MUSAT-3ALPHA","OBJECT_ID":"2025-135AX","EPOCH":"2026-03-09T21:45:39.051072","MEAN_MOTION":14.93579267,"ECCENTRICITY":0.00013641,"INCLINATION":97.7508,"RA_OF_ASC_NODE":184.2364,"ARG_OF_PERICENTER":294.2353,"MEAN_ANOMALY":65.8724,"EPHEMERIS_TYPE":0,"CLASSIFICATION_TYPE":"U","NORAD_CAT_ID":64573,"ELEMENT_SET_NO":999,"REV_AT_EPOCH":3906,"BSTAR":0.00023787476,"MEAN_MOTION_DOT":2.452e-5,"MEAN_MOTION_DDOT":0},{"OBJECT_NAME":"THORAD AGENA D DEB","OBJECT_ID":"1969-082AJ","EPOCH":"2026-03-09T21:28:13.409760","MEAN_MOTION":14.86817041,"ECCENTRICITY":0.00364847,"INCLINATION":69.8721,"RA_OF_ASC_NODE":92.2998,"ARG_OF_PERICENTER":294.513,"MEAN_ANOMALY":65.222,"EPHEMERIS_TYPE":0,"CLASSIFICATION_TYPE":"U","NORAD_CAT_ID":4141,"ELEMENT_SET_NO":999,"REV_AT_EPOCH":96954,"BSTAR":0.00088253729,"MEAN_MOTION_DOT":7.898e-5,"MEAN_MOTION_DDOT":0}]
